ONEWEB-0375             
1 49301U 21090Y   25212.87597675 -.00000024  00000+0 -90403-4 0  9992
2 49301  87.9289 338.2557 0001984 117.1666 242.9670 13.20771304188246
ONEWEB-0376             
1 49302U 21090Z   25212.86233827 -.00000159  00000+0 -42948-3 0  9997
2 49302  87.9234   8.6230 0001999  88.1534 271.9828 13.19725452184200
ONEWEB-0377             
1 49303U 21090AA  25212.86189077 -.00000194  00000+0 -50907-3 0  9998
2 49303  87.9294 338.2518 0001647 102.0753 258.0565 13.20771088188236
ONEWEB-0378             
1 49304U 21090AB  25212.88399954 -.00000055  00000+0 -16776-3 0  9990
2 49304  87.9302 338.2566 0001930 102.6316 257.5033 13.20771905187507
ONEWEB-0379             
1 49305U 21090AC  25212.88643892 -.00000169  00000+0 -49135-3 0  9995
2 49305  87.9068 353.4400 0001966  98.1710 261.9643 13.14504378185481
ONEWEB-0380             
1 49306U 21090AD  25212.85916951  .00000037  00000+0  59627-4 0  9992
2 49306  87.9233   8.6524 0001713 100.0484 260.0842 13.19726852184177
ONEWEB-0381             
1 49307U 21090AE  25212.85859351 -.00000121  00000+0 -32837-3 0  9992
2 49307  87.9299 338.2613 0001895 107.8229 252.3111 13.20770625187540
ONEWEB-0382             
1 49308U 21090AF  25212.84598452  .00000037  00000+0  59074-4 0  9991
2 49308  87.9290 338.2564 0002072 107.6080 252.5280 13.20771484187530
ONEWEB-0383             
1 49309U 21090AG  25212.95622289 -.00000234  00000+0 -66475-3 0  9993
2 49309  87.9067 353.4056 0002003  99.0368 261.0989 13.14501848186814
ONEWEB-0384             
1 49310U 21090AH  25212.84157463  .00000056  00000+0  10504-3 0  9992
2 49310  87.9302 338.2765 0002297 110.3120 249.8261 13.20786637187540
ONEWEB-0385             
1 49311U 21090AJ  25212.83807913  .00000055  00000+0  10375-3 0  9999
2 49311  87.9279 338.2734 0001968 102.6554 257.4799 13.20771497187515
ONEWEB-0386             
1 49312U 21090AK  25212.85543844 -.00000205  00000+0 -53566-3 0  9990
2 49312  87.9290 338.2413 0002110 104.9631 255.1736 13.20770752187535
ONEWEB-0387             
1 49313U 21090AL  25212.83967772  .00000306  00000+0  72056-3 0  9994
2 49313  87.9279 338.3022 0001697 112.7135 247.4178 13.20770088187531
ONEWEB-0388             
1 49314U 21090AM  25212.85442883  .00000019  00000+0  14217-4 0  9995
2 49314  87.9235   8.6594 0001910  98.6063 261.5286 13.19726656184168
ONEWEB-0389             
1 50469U 21132A   25212.67214165  .00000010  00000+0 -65344-5 0  9995
2 50469  87.9044  69.6623 0001571  97.9885 262.1424 13.17649306177163
ONEWEB-0390             
1 50470U 21132B   25212.67382598  .00000103  00000+0  23161-3 0  9994
2 50470  87.9039  69.6691 0001538  78.1368 281.9936 13.17649971175875
ONEWEB-0391             
1 50471U 21132C   25212.67550944 -.00000143  00000+0 -40206-3 0  9992
2 50471  87.9037  69.6834 0001194 110.7693 249.3566 13.17649044177167
