[{"OBJECT_NAME":"ONEWEB-0375","OBJECT_ID":"2021-090Y","EPOCH":"2025-07-31T21:01:24.391200","MEAN_MOTION":13.20771304,"ECCENTRICITY":0.0001984,"INCLINATION":87.9289,"RA_OF_ASC_NODE":338.2557,"ARG_OF_PERICENTER":117.1666,"MEAN_ANOMALY":242.967,"EPHEMERIS_TYPE":0,"CLASSIFICATION_TYPE":"U","NORAD_CAT_ID":49301,"ELEMENT_SET_NO":999,"REV_AT_EPOCH":18824,"BSTAR":-9.0403e-5,"MEAN_MOTION_DOT":-2.4e-7,"MEAN_MOTION_DDOT":0},{"OBJECT_NAME":"ONEWEB-0376","OBJECT_ID":"2021-090Z","EPOCH":"2025-07-31T20:41:46.026528","MEAN_MOTION":13.19725452,"ECCENTRICITY":0.0001999,"INCLINATION":87.9234,"RA_OF_ASC_NODE":8.623,"ARG_OF_PERICENTER":88.1534,"MEAN_ANOMALY":271.9828,"EPHEMERIS_TYPE":0,"CLASSIFICATION_TYPE":"U","NORAD_CAT_ID":49302,"ELEMENT_SET_NO":999,"REV_AT_EPOCH":18420,"BSTAR":-0.00042948,"MEAN_MOTION_DOT":-1.59e-6,"MEAN_MOTION_DDOT":0},{"OBJECT_NAME":"ONEWEB-0377","OBJECT_ID":"2021-090AA","EPOCH":"2025-07-31T20:41:07.362528","MEAN_MOTION":13.20771088,"ECCENTRICITY":0.0001647,"INCLINATION":87.9294,"RA_OF_ASC_NODE":338.2518,"ARG_OF_PERICENTER":102.0753,"MEAN_ANOMALY":258.0565,"EPHEMERIS_TYPE":0,"CLASSIFICATION_TYPE":"U","NORAD_CAT_ID":49303,"ELEMENT_SET_NO":999,"REV_AT_EPOCH":18823,"BSTAR":-0.00050907,"MEAN_MOTION_DOT":-1.94e-6,"MEAN_MOTION_DDOT":0},{"OBJECT_NAME":"ONEWEB-0378","OBJECT_ID":"2021-090AB","EPOCH":"2025-07-31T21:12:57.560256","MEAN_MOTION":13.20771905,"ECCENTRICITY":0.000193,"INCLINATION":87.9302,"RA_OF_ASC_NODE":338.2566,"ARG_OF_PERICENTER":102.6316,"MEAN_ANOMALY":257.5033,"EPHEMERIS_TYPE":0,"CLASSIFICATION_TYPE":"U","NORAD_CAT_ID":49304,"ELEMENT_SET_NO":999,"REV_AT_EPOCH":18750,"BSTAR":-0.00016776,"MEAN_MOTION_DOT":-5.5e-7,"MEAN_MOTION_DDOT":0},{"OBJECT_NAME":"ONEWEB-0379","OBJECT_ID":"2021-090AC","EPOCH":"2025-07-31T21:16:28.322688","MEAN_MOTION":13.14504378,"ECCENTRICITY":0.0001966,"INCLINATION":87.9068,"RA_OF_ASC_NODE":353.44,"ARG_OF_PERICENTER":98.171,"MEAN_ANOMALY":261.9643,"EPHEMERIS_TYPE":0,"CLASSIFICATION_TYPE":"U","NORAD_CAT_ID":49305,"ELEMENT_SET_NO":999,"REV_AT_EPOCH":18548,"BSTAR":-0.00049135,"MEAN_MOTION_DOT":-1.69e-6,"MEAN_MOTION_DDOT":0},{"OBJECT_NAME":"ONEWEB-0380","OBJECT_ID":"2021-090AD","EPOCH":"2025-07-31T20:37:12.245664","MEAN_MOTION":13.19726852,"ECCENTRICITY":0.0001713,"INCLINATION":87.9233,"RA_OF_ASC_NODE":8.6524,"ARG_OF_PERICENTER":100.0484,"MEAN_ANOMALY":260.0842,"EPHEMERIS_TYPE":0,"CLASSIFICATION_TYPE":"U","NORAD_CAT_ID":49306,"ELEMENT_SET_NO":999,"REV_AT_EPOCH":18417,"BSTAR":5.9627e-5,"MEAN_MOTION_DOT":3.7e-7,"MEAN_MOTION_DDOT":0},{"OBJECT_NAME":"ONEWEB-0381","OBJECT_ID":"2021-090AE","EPOCH":"2025-07-31T20:36:22.479264","MEAN_MOTION":13.20770625,"ECCENTRICITY":0.0001895,"INCLINATION":87.9299,"RA_OF_ASC_NODE":338.2613,"ARG_OF_PERICENTER":107.8229,"MEAN_ANOMALY":252.3111,"EPHEMERIS_TYPE":0,"CLASSIFICATION_TYPE":"U","NORAD_CAT_ID":49307,"ELEMENT_SET_NO":999,"REV_AT_EPOCH":18754,"BSTAR":-0.00032837,"MEAN_MOTION_DOT":-1.21e-6,"MEAN_MOTION_DDOT":0},{"OBJECT_NAME":"ONEWEB-0382","OBJECT_ID":"2021-090AF","EPOCH":"2025-07-31T20:18:13.062528","MEAN_MOTION":13.20771484,"ECCENTRICITY":0.0002072,"INCLINATION":87.929,"RA_OF_ASC_NODE":338.2564,"ARG_OF_PERICENTER":107.608,"MEAN_ANOMALY":252.528,"EPHEMERIS_TYPE":0,"CLASSIFICATION_TYPE":"U","NORAD_CAT_ID":49308,"ELEMENT_SET_NO":999,"REV_AT_EPOCH":18753,"BSTAR":5.9074e-5,"MEAN_MOTION_DOT":3.7e-7,"MEAN_MOTION_DDOT":0},{"OBJECT_NAME":"ONEWEB-0383","OBJECT_ID":"2021-090AG","EPOCH":"2025-07-31T22:56:57.657696","MEAN_MOTION":13.14501848,"ECCENTRICITY":0.0002003,"INCLINATION":87.9067,"RA_OF_ASC_NODE":353.4056,"ARG_OF_PERICENTER":99.0368,"MEAN_ANOMALY":261.0989,"EPHEMERIS_TYPE":0,"CLASSIFICATION_TYPE":"U","NORAD_CAT_ID":49309,"ELEMENT_SET_NO":999,"REV_AT_EPOCH":18681,"BSTAR":-0.00066475,"MEAN_MOTION_DOT":-2.34e-6,"MEAN_MOTION_DDOT":0},{"OBJECT_NAME":"ONEWEB-0384","OBJECT_ID":"2021-090AH","EPOCH":"2025-07-31T20:11:52.048032","MEAN_MOTION":13.20786637,"ECCENTRICITY":0.0002297,"INCLINATION":87.9302,"RA_OF_ASC_NODE":338.2765,"ARG_OF_PERICENTER":110.312,"MEAN_ANOMALY":249.8261,"EPHEMERIS_TYPE":0,"CLASSIFICATION_TYPE":"U","NORAD_CAT_ID":49310,"ELEMENT_SET_NO":999,"REV_AT_EPOCH":18754,"BSTAR":0.00010504,"MEAN_MOTION_DOT":5.6e-7,"MEAN_MOTION_DDOT":0},{"OBJECT_NAME":"ONEWEB-0385","OBJECT_ID":"2021-090AJ","EPOCH":"2025-07-31T20:06:50.036832","MEAN_MOTION":13.20771497,"ECCENTRICITY":0.0001968,"INCLINATION":87.9279,"RA_OF_ASC_NODE":338.2734,"ARG_OF_PERICENTER":102.6554,"MEAN_ANOMALY":257.4799,"EPHEMERIS_TYPE":0,"CLASSIFICATION_TYPE":"U","NORAD_CAT_ID":49311,"ELEMENT_SET_NO":999,"REV_AT_EPOCH":18751,"BSTAR":0.00010375,"MEAN_MOTION_DOT":5.5e-7,"MEAN_MOTION_DDOT":0},{"OBJECT_NAME":"ONEWEB-0386","OBJECT_ID":"2021-090AK","EPOCH":"2025-07-31T20:31:49.881216","MEAN_MOTION":13.20770752,"ECCENTRICITY":0.000211,"INCLINATION":87.929,"RA_OF_ASC_NODE":338.2413,"ARG_OF_PERICENTER":104.9631,"MEAN_ANOMALY":255.1736,"EPHEMERIS_TYPE":0,"CLASSIFICATION_TYPE":"U","NORAD_CAT_ID":49312,"ELEMENT_SET_NO":999,"REV_AT_EPOCH":18753,"BSTAR":-0.00053566,"MEAN_MOTION_DOT":-2.05e-6,"MEAN_MOTION_DDOT":0},{"OBJECT_NAME":"ONEWEB-0387","OBJECT_ID":"2021-090AL","EPOCH":"2025-07-31T20:09:08.155008","MEAN_MOTION":13.20770088,"ECCENTRICITY":0.0001697,"INCLINATION":87.9279,"RA_OF_ASC_NODE":338.3022,"ARG_OF_PERICENTER":112.7135,"MEAN_ANOMALY":247.4178,"EPHEMERIS_TYPE":0,"CLASSIFICATION_TYPE":"U","NORAD_CAT_ID":49313,"ELEMENT_SET_NO":999,"REV_AT_EPOCH":18753,"BSTAR":0.00072056,"MEAN_MOTION_DOT":3.06e-6,"MEAN_MOTION_DDOT":0},{"OBJECT_NAME":"ONEWEB-0388","OBJECT_ID":"2021-090AM","EPOCH":"2025-07-31T20:30:22.650912","MEAN_MOTION":13.19726656,"ECCENTRICITY":0.000191,"INCLINATION":87.9235,"RA_OF_ASC_NODE":8.6594,"ARG_OF_PERICENTER":98.6063,"MEAN_ANOMALY":261.5286,"EPHEMERIS_TYPE":0,"CLASSIFICATION_TYPE":"U","NORAD_CAT_ID":49314,"ELEMENT_SET_NO":999,"REV_AT_EPOCH":18416,"BSTAR":1.4217e-5,"MEAN_MOTION_DOT":1.9e-7,"MEAN_MOTION_DDOT":0},{"OBJECT_NAME":"ONEWEB-0389","OBJECT_ID":"2021-132A","EPOCH":"2025-07-31T16:07:53.038560","MEAN_MOTION":13.17649306,"ECCENTRICITY":0.0001571,"INCLINATION":87.9044,"RA_OF_ASC_NODE":69.6623,"ARG_OF_PERICENTER":97.9885,"MEAN_ANOMALY":262.1424,"EPHEMERIS_TYPE":0,"CLASSIFICATION_TYPE":"U","NORAD_CAT_ID":50469,"ELEMENT_SET_NO":999,"REV_AT_EPOCH":17716,"BSTAR":-6.5344e-6,"MEAN_MOTION_DOT":1.0e-7,"MEAN_MOTION_DDOT":0},{"OBJECT_NAME":"ONEWEB-0390","OBJECT_ID":"2021-132B","EPOCH":"2025-07-31T16:10:18.564672","MEAN_MOTION":13.17649971,"ECCENTRICITY":0.0001538,"INCLINATION":87.9039,"RA_OF_ASC_NODE":69.6691,"ARG_OF_PERICENTER":78.1368,"MEAN_ANOMALY":281.9936,"EPHEMERIS_TYPE":0,"CLASSIFICATION_TYPE":"U","NORAD_CAT_ID":50470,"ELEMENT_SET_NO":999,"REV_AT_EPOCH":17587,"BSTAR":0.00023161,"MEAN_MOTION_DOT":1.03e-6,"MEAN_MOTION_DDOT":0},{"OBJECT_NAME":"ONEWEB-0391","OBJECT_ID":"2021-132C","EPOCH":"2025-07-31T16:12:44.015616","MEAN_MOTION":13.17649044,"ECCENTRICITY":0.0001194,"INCLINATION":87.9037,"RA_OF_ASC_NODE":69.6834,"ARG_OF_PERICENTER":110.7693,"MEAN_ANOMALY":249.3566,"EPHEMERIS_TYPE":0,"CLASSIFICATION_TYPE":"U","NORAD_CAT_ID":50471,"ELEMENT_SET_NO":999,"REV_AT_EPOCH":17716,"BSTAR":-0.00040206,"MEAN_MOTION_DOT":-1.43e-6,"MEAN_MOTION_DDOT":0}]
